METOP-C                 
1 43689U 18087A   26192.14048461  .00000034  00000+0  35521-4 0  9998
2 43689  98.6632 251.3048 0002229  98.8154 261.3276 14.21518323398231
GEO-KOMPSAT-2A          
1 43823U 18100A   26192.17892022 -.00000337  00000+0  00000+0 0  9993
2 43823   0.0252 122.2948 0001960 339.2445  20.2286  1.00271752 27874
METEOR-M2 2             
1 44387U 19038A   26192.19855895  .00000123  00000+0  73106-4 0  9993
2 44387  98.9158 179.8394 0000988  12.4473 347.6729 14.24372463364710
ARKTIKA-M 1             
1 47719U 21016A   26188.42887598 -.00000257  00000+0  00000+0 0  9997
2 47719  63.2524  54.6812 7295086 270.0380  14.5466  2.00614486 39194
FENGYUN 3E              
1 49008U 21062A   26192.16043654 -.00000147  00000+0 -48345-4 0  9992
2 49008  98.7502 195.3011 0002459  46.4366 313.7014 14.19905359259981
GOES 18                 
1 51850U 22021A   26192.22617122  .00000104  00000+0  00000+0 0  9992
2 51850   0.0048 121.9165 0000597  69.6185  42.0202  1.00272401  6838
NOAA 21 (JPSS-2)        
1 54234U 22150A   26192.14000411  .00000007  00000+0  23874-4 0  9993
2 54234  98.7061 130.5269 0002740 111.6407 248.5062 14.19540637189948
METEOSAT-12 (MTG-I1)    
1 54743U 22170C   26192.19072829 -.00000001  00000+0  00000+0 0  9993
2 54743   0.7208  18.9557 0003799  83.0160 255.5307  1.00266908 13219
TIANMU-1 03             
1 55973U 23039A   26192.16740119  .00009131  00000+0  17676-3 0  9998
2 55973  97.5238   7.0887 0002924  37.5006 322.6447 15.47966599184544
TIANMU-1 04             
1 55974U 23039B   26192.14744565  .00010343  00000+0  19569-3 0  9996
2 55974  97.5172   6.2238 0003417  27.8403 332.3030 15.48587729184556
TIANMU-1 05             
1 55975U 23039C   26192.21398894  .00010222  00000+0  19814-3 0  9994
2 55975  97.5218   6.7433 0003307  56.1639 303.9926 15.47891415184539
TIANMU-1 06             
1 55976U 23039D   26192.15236186  .00010259  00000+0  19480-3 0  9992
2 55976  97.5225   7.3393 0003417  48.9970 311.1575 15.48485333184551
FENGYUN 3G              
1 56232U 23055A   26192.16818369  .00013456  00000+0  21315-3 0  9998
2 56232  49.9912 222.3591 0007158  37.8307 322.3163 15.53666956183731
METEOR-M2 3             
1 57166U 23091A   26192.19842094 -.00000017  00000+0  11416-4 0  9992
2 57166  98.6070 246.6839 0005151  99.2560 260.9202 14.24048731157938
TIANMU-1 07             
1 57399U 23101A   26192.16884880  .00003724  00000+0  13044-3 0  9993
2 57399  97.2586 242.2883 0003991  72.8603 287.3075 15.30085266165313
TIANMU-1 08             
1 57400U 23101B   26192.20082378  .00003713  00000+0  13003-3 0  9996
2 57400  97.2574 242.0867 0004944  56.9504 303.2211 15.30089276165310
TIANMU-1 09             
1 57401U 23101C   26192.18369020  .00003891  00000+0  13599-3 0  9993
2 57401  97.2532 241.4735 0004588  73.7998 286.3748 15.30129322165313
TIANMU-1 10             
1 57402U 23101D   26192.15176727  .00003978  00000+0  13907-3 0  9990
2 57402  97.2611 242.5173 0005949  65.0939 295.0919 15.30102539165308
FENGYUN 3F              
1 57490U 23111A   26192.14377826  .00000006  00000+0  23106-4 0  9992
2 57490  98.6827 261.7050 0001352  78.0817 282.0511 14.19943005152261
ARKTIKA-M 2             
1 58584U 23198A   26191.19028483  .00000186  00000+0  00000+0 0  9990
2 58584  63.2187 151.7914 6909064 267.3543  18.7503  2.00608615 18787
TIANMU-1 11             
1 58645U 23205A   26192.23223694  .00003055  00000+0  11715-3 0  9991
2 58645  97.3445 213.4143 0006761 279.8426  80.2049 15.27238352141195
TIANMU-1 12             
1 58646U 23205B   26192.13867022  .00003393  00000+0  13049-3 0  9997
2 58646  97.3434 213.0707 0005550 253.0760 106.9871 15.27068510141169
TIANMU-1 13             
1 58647U 23205C   26192.23761977  .00003241  00000+0  12481-3 0  9992
2 58647  97.3462 213.4466 0005420 229.2118 130.8651 15.27061755141172
TIANMU-1 14             
1 58648U 23205D   26192.22212622  .00003305  00000+0  12703-3 0  9998
2 58648  97.3398 212.5944 0006081 237.1505 122.9149 15.27105706141173
TIANMU-1 19             
1 58660U 23208A   26192.19655304  .00005018  00000+0  16531-3 0  9995
2 58660  97.4517 308.6269 0004202 213.7008 146.3967 15.31936089141000
TIANMU-1 20             
1 58661U 23208B   26192.15045663  .00005059  00000+0  16054-3 0  9998
2 58661  97.4460 309.2409 0005976 228.3379 131.7352 15.33124572141096
TIANMU-1 21             
1 58662U 23208C   26192.16740022  .00005931  00000+0  17421-3 0  9999
2 58662  97.4519 312.0436 0006302 219.6470 140.4313 15.35503922141246
TIANMU-1 22             
1 58663U 23208D   26192.18665579  .00004632  00000+0  15540-3 0  9992
2 58663  97.4514 308.5322 0002444 238.5288 121.5714 15.31390829141001
TIANMU-1 15             
1 58700U 24004A   26192.21520207  .00003183  00000+0  12335-3 0  9990
2 58700  97.4669  18.4061 0005796 245.6098 114.4536 15.26887831139448
TIANMU-1 16             
1 58701U 24004B   26192.20493731  .00003311  00000+0  12782-3 0  9990
2 58701  97.4617  17.6147 0004310 264.6240  95.4507 15.26991065139440
TIANMU-1 17             
1 58702U 24004C   26192.19041442  .00003325  00000+0  12835-3 0  9991
2 58702  97.4643  18.0939 0003824 271.8789  88.2012 15.26988605139437
TIANMU-1 18             
1 58703U 24004D   26192.16628008  .00003146  00000+0  12189-3 0  9991
2 58703  97.4662  18.3319 0003498 244.0475 116.0404 15.26904171139436
INSAT-3DS               
1 58990U 24033A   26191.44052875 -.00000146  00000+0  00000+0 0  9997
2 58990   0.1046 265.7903 0001077 223.3866  39.8494  1.00271597 47304
METEOR-M2 4             
1 59051U 24039A   26192.17004363 -.00000017  00000+0  12162-4 0  9996
2 59051  98.7023 151.1682 0008231  98.7930 261.4180 14.22431890122679
GOES 19                 
1 60133U 24119A   26192.21171147 -.00000241  00000+0  00000+0 0  9990
2 60133   0.0154 267.1337 0000559 296.4217  86.5835  1.00270137  7209
MTG-S1                  
1 64723U 25143A   26192.19072829  .00000000  00000+0  00000+0 0  9993
2 64723   0.5869 344.1126 0003471 262.0795 111.1412  1.00272782  3653
METOP-SGA1              
1 65159U 25172A   26191.60662656 -.00000003  00000+0  19202-4 0  9990
2 65159  98.6632 250.8392 0007304 346.0589  14.0384 14.19818674 47112
FENGYUN 3H              
1 65815U 25219A   26190.59021699  .00000022  00000+0  30852-4 0  9998
2 65815  98.6772 130.9242 0001269  63.2177 296.9130 14.19924262 40566
OSCAR 7 (AO-7)          
1 07530U 74089B   26191.28585716 -.00000033  00000+0  81097-4 0  9999
2 07530 101.9903 204.7731 0012662  87.4352 340.9074 12.53698448363414
PHASE 3B (AO-10)        
1 14129U 83058B   26190.70523784  .00000106  00000+0  00000+0 0  9990
2 14129  25.9319 215.8523 6003352 121.8543 310.3469  2.05870648295953
UOSAT 2 (UO-11)         
1 14781U 84021B   26191.78011939  .00000875  00000+0  94506-4 0  9990
2 14781  97.8073 157.0938 0009177 103.5627 256.6614 14.90842185260648
LUSAT (LO-19)           
1 20442U 90005G   26192.04281125  .00000044  00000+0  32502-4 0  9992
2 20442  98.8847 214.5050 0012391 132.7513 227.4716 14.34129949905811
EYESAT A (AO-27)        
1 22825U 93061C   26192.19346697  .00000030  00000+0  28428-4 0  9993
2 22825  98.6869 259.5970 0008978  36.9146 323.2653 14.30948413710431
ITAMSAT (IO-26)         
1 22826U 93061D   26192.16571376  .00000023  00000+0  25651-4 0  9992
2 22826  98.6817 259.4892 0009193  20.8495 339.3061 14.31375920710749
RADIO ROSTO (RS15)      
1 23439U 94085A   26192.15072431 -.00000035  00000+0  21280-3 0  9994
2 23439  64.8159 264.4617 0156769 359.4538   0.6192 11.27583514298607
JAS-2 (FO-29)           
1 24278U 96046B   26191.00858423  .00000009  00000+0  43570-4 0  9998
2 24278  98.5223  36.7525 0350566  37.3768 325.1213 13.53275218476259
TECHSAT 1B (GO-32)      
1 25397U 98043D   26191.38503001  .00000024  00000+0  30598-4 0  9993
2 25397  99.0081 184.7300 0002059 122.4891 237.6486 14.24432755454636
ISS (ZARYA)             
1 25544U 98067A   26192.18582566  .00005410  00000+0  10636-3 0  9999
2 25544  51.6302 181.3206 0006688 281.9973  78.0266 15.48977198575473
PCSAT (NO-44)           
1 26931U 01043C   26192.18606088  .00000055  00000+0  51329-4 0  9999
2 26931  67.0491 182.1989 0005966 266.2748  93.7672 14.31964030293884
SAUDISAT 1C (SO-50)     
1 27607U 02058C   26192.02595286  .00000390  00000+0  64019-4 0  9999
2 27607  64.5517  55.2264 0074652 258.0491 101.2239 14.83093538267994
CUTE-1 (CO-55)          
1 27844U 03031E   26191.00816836  .00000182  00000+0  97603-4 0  9992
2 27844  98.6739 199.2802 0010718 116.0719 244.1564 14.24349450194929
CUBESAT XI-IV (CO-57)   
1 27848U 03031J   26191.99204951  .00000130  00000+0  76313-4 0  9991
2 27848  98.6772 199.9452 0010410 130.5633 229.6453 14.23633076194769
MOZHAETS 4 (RS22)       
1 27939U 03042A   26192.19612225  .00000608  00000+0  10185-3 0  9998
2 27939  98.3479  17.2346 0010884 186.0666 303.5935 14.73510312219084
CUBESAT XI-V            
1 28895U 05043F   26191.36800381  .00000898  00000+0  14887-3 0  9997
2 28895  98.3010 347.4805 0015096 129.3634 230.8913 14.72694805105160
CUTE-1.7+APD II (CO-65) 
1 32785U 08021C   26192.17790374  .00003162  00000+0  20044-3 0  9998
2 32785  97.8285 174.1007 0007336 315.7430  44.3211 15.09676401988816
SEEDS II (CO-66)        
1 32791U 08021J   26191.43592964  .00013245  00000+0  41058-3 0  9999
2 32791  97.7526 190.4573 0002534 167.6964 192.4340 15.33559548990854
YUBILEINY (RS30)        
1 32953U 08025A   26192.16140537  .00000070  00000+0  43061-3 0  9997
2 32953  82.5055 340.5258 0018553 258.3917 101.5080 12.43180753822677
KKS-1 (KISEKI)          
1 33499U 09002H   26192.20662356  .00000692  00000+0  91609-4 0  9994
2 33499  98.1178 115.0295 0007100 202.5926 157.4975 14.83183418939753
SWISSCUBE               
1 35932U 09051B   26192.18281227  .00000531  00000+0  11450-3 0  9990
2 35932  98.4014 100.4874 0007656 129.8333 230.3542 14.62526269892660
